ATLAS CENTAUR R/B       
1 06155U 72065B   26018.01589015  .00000887  00000+0  12448-3 0  9997
2 06155  35.0005 242.6852 0034495 303.2234  56.5162 14.77514535833767
SL-8 R/B                
1 08459U 75112B   26018.55900358  .00000230  00000+0  84285-4 0  9999
2 08459  74.0612 111.1348 0016299 218.6883 141.3105 14.38171860624668
SL-3 R/B                
1 10114U 77057B   26018.58085070  .00011920  00000+0  26378-3 0  9994
2 10114  97.5699 188.3760 0008590 102.2873 257.9337 15.43927748660594
SEASAT 1                
1 10967U 78064A   26018.62218108  .00000242  00000+0  10635-3 0  9998
2 10967 108.0162  20.4243 0001190 280.2918  79.8094 14.46105898499273
SL-14 R/B               
1 11267U 79011B   26018.61215886  .00000630  00000+0  59803-4 0  9996
2 11267  82.5260 144.0754 0015084 220.8810 139.1279 14.91827003521315
SL-8 R/B                
1 11574U 79089B   26018.59811281  .00000381  00000+0  12309-3 0  9992
2 11574  74.0677 183.7597 0015647   4.6882 355.4418 14.42310532428887
SL-14 R/B               
1 11672U 80005B   26018.39096787  .00000641  00000+0  62428-4 0  9992
2 11672  82.5152 354.9339 0015098 337.1040  22.9504 14.90844971468994
SL-8 R/B                
1 12139U 81003B   26018.37111472  .00027374  00000+0  72557-3 0  9992
2 12139  82.9393 336.4817 0270547 354.4439   5.3798 15.08649545307088
SL-3 R/B                
1 12465U 81046B   26018.59959293  .00011034  00000+0  26972-3 0  9992
2 12465  81.2332 349.8099 0018948 187.9663 172.1282 15.40484718430711
SL-3 R/B                
1 12904U 81103B   26018.64485889  .00005252  00000+0  23715-3 0  9992
2 12904  81.1591 272.1206 0014476  92.4686 267.8203 15.20707165965620
SL-3 R/B                
1 13068U 82013B   26018.60910425  .00003533  00000+0  15518-3 0  9992
2 13068  81.1720 219.4415 0022667 350.9714   9.1106 15.21428443396736
SL-3 R/B                
1 13154U 82039B   26018.62420929  .00002341  00000+0  14211-3 0  9998
2 13154  81.1671 273.6513 0029958 128.2960 232.0967 15.09761836374085
