CCSDS_OMM_VERS = 2.0
CREATION_DATE  = 
ORIGINATOR     = 

OBJECT_NAME    = ATLAS CENTAUR R/B
OBJECT_ID      = 1972-065B
CENTER_NAME    = EARTH
REF_FRAME      = TEME
TIME_SYSTEM    = UTC
MEAN_ELEMENT_THEORY = SGP/SGP4

EPOCH          = 2026-01-18T00:22:52.908960
MEAN_MOTION    = 14.77514535
ECCENTRICITY   = .0034495
INCLINATION    = 35.0005
RA_OF_ASC_NODE = 242.6852
ARG_OF_PERICENTER = 303.2234
MEAN_ANOMALY   = 56.5162

EPHEMERIS_TYPE = 0
CLASSIFICATION_TYPE = U
NORAD_CAT_ID   = 6155
ELEMENT_SET_NO = 999
REV_AT_EPOCH   = 83376
BSTAR          = .12448338E-3
MEAN_MOTION_DOT = .887E-5
MEAN_MOTION_DDOT = 0

CCSDS_OMM_VERS = 2.0
CREATION_DATE  = 
ORIGINATOR     = 

OBJECT_NAME    = SL-8 R/B
OBJECT_ID      = 1975-112B
CENTER_NAME    = EARTH
REF_FRAME      = TEME
TIME_SYSTEM    = UTC
MEAN_ELEMENT_THEORY = SGP/SGP4

EPOCH          = 2026-01-18T13:24:57.909312
MEAN_MOTION    = 14.38171860
ECCENTRICITY   = .00162992
INCLINATION    = 74.0612
RA_OF_ASC_NODE = 111.1348
ARG_OF_PERICENTER = 218.6883
MEAN_ANOMALY   = 141.3105

EPHEMERIS_TYPE = 0
CLASSIFICATION_TYPE = U
NORAD_CAT_ID   = 8459
ELEMENT_SET_NO = 999
REV_AT_EPOCH   = 62466
BSTAR          = .8428463E-4
MEAN_MOTION_DOT = .23E-5
MEAN_MOTION_DDOT = 0

CCSDS_OMM_VERS = 2.0
CREATION_DATE  = 
ORIGINATOR     = 

OBJECT_NAME    = SL-3 R/B
OBJECT_ID      = 1977-057B
CENTER_NAME    = EARTH
REF_FRAME      = TEME
TIME_SYSTEM    = UTC
MEAN_ELEMENT_THEORY = SGP/SGP4

EPOCH          = 2026-01-18T13:56:25.500480
MEAN_MOTION    = 15.43927748
ECCENTRICITY   = .00085904
INCLINATION    = 97.5699
RA_OF_ASC_NODE = 188.3760
ARG_OF_PERICENTER = 102.2873
MEAN_ANOMALY   = 257.9337

EPHEMERIS_TYPE = 0
CLASSIFICATION_TYPE = U
NORAD_CAT_ID   = 10114
ELEMENT_SET_NO = 999
REV_AT_EPOCH   = 66059
BSTAR          = .26377799E-3
MEAN_MOTION_DOT = .1192E-3
MEAN_MOTION_DDOT = 0

CCSDS_OMM_VERS = 2.0
CREATION_DATE  = 
ORIGINATOR     = 

OBJECT_NAME    = SEASAT 1
OBJECT_ID      = 1978-064A
CENTER_NAME    = EARTH
REF_FRAME      = TEME
TIME_SYSTEM    = UTC
MEAN_ELEMENT_THEORY = SGP/SGP4

EPOCH          = 2026-01-18T14:55:56.445312
MEAN_MOTION    = 14.46105898
ECCENTRICITY   = .00011909
INCLINATION    = 108.0162
RA_OF_ASC_NODE = 20.4243
ARG_OF_PERICENTER = 280.2918
MEAN_ANOMALY   = 79.8094

EPHEMERIS_TYPE = 0
CLASSIFICATION_TYPE = U
NORAD_CAT_ID   = 10967
ELEMENT_SET_NO = 999
REV_AT_EPOCH   = 49927
BSTAR          = .10635355E-3
MEAN_MOTION_DOT = .242E-5
MEAN_MOTION_DDOT = 0

CCSDS_OMM_VERS = 2.0
CREATION_DATE  = 
ORIGINATOR     = 

OBJECT_NAME    = SL-14 R/B
OBJECT_ID      = 1979-011B
CENTER_NAME    = EARTH
REF_FRAME      = TEME
TIME_SYSTEM    = UTC
MEAN_ELEMENT_THEORY = SGP/SGP4

EPOCH          = 2026-01-18T14:41:30.525504
MEAN_MOTION    = 14.91827003
ECCENTRICITY   = .00150842
INCLINATION    = 82.5260
RA_OF_ASC_NODE = 144.0754
ARG_OF_PERICENTER = 220.8810
MEAN_ANOMALY   = 139.1279

EPHEMERIS_TYPE = 0
CLASSIFICATION_TYPE = U
NORAD_CAT_ID   = 11267
ELEMENT_SET_NO = 999
REV_AT_EPOCH   = 52131
BSTAR          = .59802714E-4
MEAN_MOTION_DOT = .63E-5
MEAN_MOTION_DDOT = 0

CCSDS_OMM_VERS = 2.0
CREATION_DATE  = 
ORIGINATOR     = 

OBJECT_NAME    = SL-8 R/B
OBJECT_ID      = 1979-089B
CENTER_NAME    = EARTH
REF_FRAME      = TEME
TIME_SYSTEM    = UTC
MEAN_ELEMENT_THEORY = SGP/SGP4

EPOCH          = 2026-01-18T14:21:16.946784
MEAN_MOTION    = 14.42310532
ECCENTRICITY   = .00156472
INCLINATION    = 74.0677
RA_OF_ASC_NODE = 183.7597
ARG_OF_PERICENTER = 4.6882
MEAN_ANOMALY   = 355.4418

EPHEMERIS_TYPE = 0
CLASSIFICATION_TYPE = U
NORAD_CAT_ID   = 11574
ELEMENT_SET_NO = 999
REV_AT_EPOCH   = 42888
BSTAR          = .12309217E-3
MEAN_MOTION_DOT = .381E-5
MEAN_MOTION_DDOT = 0

CCSDS_OMM_VERS = 2.0
CREATION_DATE  = 
ORIGINATOR     = 

OBJECT_NAME    = SL-14 R/B
OBJECT_ID      = 1980-005B
CENTER_NAME    = EARTH
REF_FRAME      = TEME
TIME_SYSTEM    = UTC
MEAN_ELEMENT_THEORY = SGP/SGP4

EPOCH          = 2026-01-18T09:22:59.623968
MEAN_MOTION    = 14.90844971
ECCENTRICITY   = .00150988
INCLINATION    = 82.5152
RA_OF_ASC_NODE = 354.9339
ARG_OF_PERICENTER = 337.1040
MEAN_ANOMALY   = 22.9504

EPHEMERIS_TYPE = 0
CLASSIFICATION_TYPE = U
NORAD_CAT_ID   = 11672
ELEMENT_SET_NO = 999
REV_AT_EPOCH   = 46899
BSTAR          = .62428409E-4
MEAN_MOTION_DOT = .641E-5
MEAN_MOTION_DDOT = 0

CCSDS_OMM_VERS = 2.0
CREATION_DATE  = 
ORIGINATOR     = 

OBJECT_NAME    = SL-8 R/B
OBJECT_ID      = 1981-003B
CENTER_NAME    = EARTH
REF_FRAME      = TEME
TIME_SYSTEM    = UTC
MEAN_ELEMENT_THEORY = SGP/SGP4

EPOCH          = 2026-01-18T08:54:24.311808
MEAN_MOTION    = 15.08649545
ECCENTRICITY   = .02705478
INCLINATION    = 82.9393
RA_OF_ASC_NODE = 336.4817
ARG_OF_PERICENTER = 354.4439
MEAN_ANOMALY   = 5.3798

EPHEMERIS_TYPE = 0
CLASSIFICATION_TYPE = U
NORAD_CAT_ID   = 12139
ELEMENT_SET_NO = 999
REV_AT_EPOCH   = 30708
BSTAR          = .72557237E-3
MEAN_MOTION_DOT = .27374E-3
MEAN_MOTION_DDOT = 0

CCSDS_OMM_VERS = 2.0
CREATION_DATE  = 
ORIGINATOR     = 

OBJECT_NAME    = SL-3 R/B
OBJECT_ID      = 1981-046B
CENTER_NAME    = EARTH
REF_FRAME      = TEME
TIME_SYSTEM    = UTC
MEAN_ELEMENT_THEORY = SGP/SGP4

EPOCH          = 2026-01-18T14:23:24.829152
MEAN_MOTION    = 15.40484718
ECCENTRICITY   = .00189486
INCLINATION    = 81.2332
RA_OF_ASC_NODE = 349.8099
ARG_OF_PERICENTER = 187.9663
MEAN_ANOMALY   = 172.1282

EPHEMERIS_TYPE = 0
CLASSIFICATION_TYPE = U
NORAD_CAT_ID   = 12465
ELEMENT_SET_NO = 999
REV_AT_EPOCH   = 43071
BSTAR          = .2697235E-3
MEAN_MOTION_DOT = .11034E-3
MEAN_MOTION_DDOT = 0

CCSDS_OMM_VERS = 2.0
CREATION_DATE  = 
ORIGINATOR     = 

OBJECT_NAME    = SL-3 R/B
OBJECT_ID      = 1981-103B
CENTER_NAME    = EARTH
REF_FRAME      = TEME
TIME_SYSTEM    = UTC
MEAN_ELEMENT_THEORY = SGP/SGP4

EPOCH          = 2026-01-18T15:28:35.808096
MEAN_MOTION    = 15.20707165
ECCENTRICITY   = .00144768
INCLINATION    = 81.1591
RA_OF_ASC_NODE = 272.1206
ARG_OF_PERICENTER = 92.4686
MEAN_ANOMALY   = 267.8203

EPHEMERIS_TYPE = 0
CLASSIFICATION_TYPE = U
NORAD_CAT_ID   = 12904
ELEMENT_SET_NO = 999
REV_AT_EPOCH   = 96562
BSTAR          = .2371509E-3
MEAN_MOTION_DOT = .5252E-4
MEAN_MOTION_DDOT = 0

CCSDS_OMM_VERS = 2.0
CREATION_DATE  = 
ORIGINATOR     = 

OBJECT_NAME    = SL-3 R/B
OBJECT_ID      = 1982-013B
CENTER_NAME    = EARTH
REF_FRAME      = TEME
TIME_SYSTEM    = UTC
MEAN_ELEMENT_THEORY = SGP/SGP4

EPOCH          = 2026-01-18T14:37:06.607200
MEAN_MOTION    = 15.21428443
ECCENTRICITY   = .00226677
INCLINATION    = 81.1720
RA_OF_ASC_NODE = 219.4415
ARG_OF_PERICENTER = 350.9714
MEAN_ANOMALY   = 9.1106

EPHEMERIS_TYPE = 0
CLASSIFICATION_TYPE = U
NORAD_CAT_ID   = 13068
ELEMENT_SET_NO = 999
REV_AT_EPOCH   = 39673
BSTAR          = .15518362E-3
MEAN_MOTION_DOT = .3533E-4
MEAN_MOTION_DDOT = 0

CCSDS_OMM_VERS = 2.0
CREATION_DATE  = 
ORIGINATOR     = 

OBJECT_NAME    = SL-3 R/B
OBJECT_ID      = 1982-039B
CENTER_NAME    = EARTH
REF_FRAME      = TEME
TIME_SYSTEM    = UTC
MEAN_ELEMENT_THEORY = SGP/SGP4

EPOCH          = 2026-01-18T14:58:51.682656
MEAN_MOTION    = 15.09761836
ECCENTRICITY   = .00299585
INCLINATION    = 81.1671
RA_OF_ASC_NODE = 273.6513
ARG_OF_PERICENTER = 128.2960
MEAN_ANOMALY   = 232.0967

EPHEMERIS_TYPE = 0
CLASSIFICATION_TYPE = U
NORAD_CAT_ID   = 13154
ELEMENT_SET_NO = 999
REV_AT_EPOCH   = 37408
BSTAR          = .14211486E-3
MEAN_MOTION_DOT = .2341E-4
MEAN_MOTION_DDOT = 0

